{"type": "FeatureCollection", "features": [{"type": "Feature", "properties": {"norad_id": 2807, "name": "OPS 7218 (TRANSIT 16)", "group": "nnss", "lat": 63.48231193502028, "lon": 173.25483829139415, "alt_km": 1047.3759695145336, "timestamp": "2025-12-15T22:44:29.196239+00:00", "meta": {"OBJECT_NAME": "OPS 7218 (TRANSIT 16)", "OBJECT_ID": "1967-048A", "EPOCH": "2025-12-15T06:13:12.072000", "MEAN_MOTION": 13.50722677, "ECCENTRICITY": 0.0022052, "INCLINATION": 89.6733, "RA_OF_ASC_NODE": 353.9327, "ARG_OF_PERICENTER": 107.3623, "MEAN_ANOMALY": 263.6707, "EPHEMERIS_TYPE": 0, "CLASSIFICATION_TYPE": "U", "NORAD_CAT_ID": 2807, "ELEMENT_SET_NO": 999, "REV_AT_EPOCH": 88310, "BSTAR": 0.00017028119, "MEAN_MOTION_DOT": 1.2e-06, "MEAN_MOTION_DDOT": 0}, "tle": {"line1": "1 02807U 67048A   25349.25916750  .00000120  00000+0  17028-3 0  9993", "line2": "2 02807  89.6733 353.9327 0022052 107.3623 263.6707 13.50722677883101"}}, "geometry": {"type": "Point", "coordinates": [173.25483829139415, 63.48231193502028]}}, {"type": "Feature", "properties": {"norad_id": 2965, "name": "OPS 4947 (TRANSIT 17)", "group": "nnss", "lat": -32.396758373318356, "lon": -155.3322483728941, "alt_km": 1032.0573843967559, "timestamp": "2025-12-15T22:44:29.196262+00:00", "meta": {"OBJECT_NAME": "OPS 4947 (TRANSIT 17)", "OBJECT_ID": "1967-092A", "EPOCH": "2025-12-15T04:16:43.461984", "MEAN_MOTION": 13.53454055, "ECCENTRICITY": 0.00463327, "INCLINATION": 89.2494, "RA_OF_ASC_NODE": 24.2497, "ARG_OF_PERICENTER": 227.1843, "MEAN_ANOMALY": 199.2003, "EPHEMERIS_TYPE": 0, "CLASSIFICATION_TYPE": "U", "NORAD_CAT_ID": 2965, "ELEMENT_SET_NO": 999, "REV_AT_EPOCH": 87130, "BSTAR": 0.00020710086, "MEAN_MOTION_DOT": 1.51e-06, "MEAN_MOTION_DDOT": 0}, "tle": {"line1": "1 02965U 67092A   25349.17828081  .00000151  00000+0  20710-3 0  9993", "line2": "2 02965  89.2494  24.2497 0046332 227.1843 199.2003 13.53454055871301"}}, "geometry": {"type": "Point", "coordinates": [-155.3322483728941, -32.396758373318356]}}, {"type": "Feature", "properties": {"norad_id": 3133, "name": "OPS 7034 (TRANSIT 18)", "group": "nnss", "lat": -20.289218674266124, "lon": -86.34174824261846, "alt_km": 1126.882998291655, "timestamp": "2025-12-15T22:44:29.196276+00:00", "meta": {"OBJECT_NAME": "OPS 7034 (TRANSIT 18)", "OBJECT_ID": "1968-012A", "EPOCH": "2025-12-15T09:13:27.443424", "MEAN_MOTION": 13.5156628, "ECCENTRICITY": 0.00741143, "INCLINATION": 90.028, "RA_OF_ASC_NODE": 273.6463, "ARG_OF_PERICENTER": 161.483, "MEAN_ANOMALY": 319.5718, "EPHEMERIS_TYPE": 0, "CLASSIFICATION_TYPE": "U", "NORAD_CAT_ID": 3133, "ELEMENT_SET_NO": 999, "REV_AT_EPOCH": 56954, "BSTAR": 0.00015545917, "MEAN_MOTION_DOT": 1.13e-06, "MEAN_MOTION_DDOT": 0}, "tle": {"line1": "1 03133U 68012A   25349.38434541  .00000113  00000+0  15546-3 0  9990", "line2": "2 03133  90.0280 273.6463 0074114 161.4830 319.5718 13.51566280569542"}}, "geometry": {"type": "Point", "coordinates": [-86.34174824261846, -20.289218674266124]}}, {"type": "Feature", "properties": {"norad_id": 4507, "name": "NNSS 19 (TRANSIT 19)", "group": "nnss", "lat": -50.86451913043652, "lon": -125.45722073316524, "alt_km": 959.1851676579736, "timestamp": "2025-12-15T22:44:29.196288+00:00", "meta": {"OBJECT_NAME": "NNSS 19 (TRANSIT 19)", "OBJECT_ID": "1970-067A", "EPOCH": "2025-12-15T03:26:21.774912", "MEAN_MOTION": 13.51315578, "ECCENTRICITY": 0.01704152, "INCLINATION": 90.0054, "RA_OF_ASC_NODE": 234.5357, "ARG_OF_PERICENTER": 286.3512, "MEAN_ANOMALY": 71.8961, "EPHEMERIS_TYPE": 0, "CLASSIFICATION_TYPE": "U", "NORAD_CAT_ID": 4507, "ELEMENT_SET_NO": 999, "REV_AT_EPOCH": 72254, "BSTAR": 0.00013748227, "MEAN_MOTION_DOT": 1.05e-06, "MEAN_MOTION_DDOT": 0}, "tle": {"line1": "1 04507U 70067A   25349.14330758  .00000105  00000+0  13748-3 0  9991", "line2": "2 04507  90.0054 234.5357 0170415 286.3512  71.8961 13.51315578722541"}}, "geometry": {"type": "Point", "coordinates": [-125.45722073316524, -50.86451913043652]}}, {"type": "Feature", "properties": {"norad_id": 6909, "name": "NNSS 20 (TRANSIT 20)", "group": "nnss", "lat": -72.973872152304, "lon": 75.47592738259901, "alt_km": 1117.0062996297092, "timestamp": "2025-12-15T22:44:29.196299+00:00", "meta": {"OBJECT_NAME": "NNSS 20 (TRANSIT 20)", "OBJECT_ID": "1973-081A", "EPOCH": "2025-12-15T07:30:39.006144", "MEAN_MOTION": 13.7143545, "ECCENTRICITY": 0.01566029, "INCLINATION": 89.8562, "RA_OF_ASC_NODE": 255.0156, "ARG_OF_PERICENTER": 70.7019, "MEAN_ANOMALY": 291.1006, "EPHEMERIS_TYPE": 0, "CLASSIFICATION_TYPE": "U", "NORAD_CAT_ID": 6909, "ELEMENT_SET_NO": 999, "REV_AT_EPOCH": 80396, "BSTAR": 0.00025143528, "MEAN_MOTION_DOT": 2.58e-06, "MEAN_MOTION_DDOT": 0}, "tle": {"line1": "1 06909U 73081A   25349.31295146  .00000258  00000+0  25144-3 0  9990", "line2": "2 06909  89.8562 255.0156 0156602  70.7019 291.1006 13.71435450803960"}}, "geometry": {"type": "Point", "coordinates": [75.47592738259901, -72.973872152304]}}, {"type": "Feature", "properties": {"norad_id": 10457, "name": "TRANSAT", "group": "nnss", "lat": -73.7135004651154, "lon": 77.27818052354297, "alt_km": 1088.8251143252573, "timestamp": "2025-12-15T22:44:29.196310+00:00", "meta": {"OBJECT_NAME": "TRANSAT", "OBJECT_ID": "1977-106A", "EPOCH": "2025-12-15T07:23:38.930208", "MEAN_MOTION": 13.48944004, "ECCENTRICITY": 0.00256436, "INCLINATION": 89.6481, "RA_OF_ASC_NODE": 78.5061, "ARG_OF_PERICENTER": 182.0497, "MEAN_ANOMALY": 240.4341, "EPHEMERIS_TYPE": 0, "CLASSIFICATION_TYPE": "U", "NORAD_CAT_ID": 10457, "ELEMENT_SET_NO": 999, "REV_AT_EPOCH": 36778, "BSTAR": 0.00010792268, "MEAN_MOTION_DOT": 7.8e-07, "MEAN_MOTION_DDOT": 0}, "tle": {"line1": "1 10457U 77106A   25349.30808947  .00000078  00000+0  10792-3 0  9996", "line2": "2 10457  89.6481  78.5061 0025643 182.0497 240.4341 13.48944004367789"}}, "geometry": {"type": "Point", "coordinates": [77.27818052354297, -73.7135004651154]}}, {"type": "Feature", "properties": {"norad_id": 12458, "name": "NOVA 1", "group": "nnss", "lat": -71.70043724656962, "lon": -88.21427699715562, "alt_km": 1190.5787353674577, "timestamp": "2025-12-15T22:44:29.196321+00:00", "meta": {"OBJECT_NAME": "NOVA 1", "OBJECT_ID": "1981-044A", "EPOCH": "2025-12-15T09:07:10.981344", "MEAN_MOTION": 13.23278769, "ECCENTRICITY": 0.00159301, "INCLINATION": 89.8526, "RA_OF_ASC_NODE": 91.3478, "ARG_OF_PERICENTER": 97.5257, "MEAN_ANOMALY": 331.8257, "EPHEMERIS_TYPE": 0, "CLASSIFICATION_TYPE": "U", "NORAD_CAT_ID": 12458, "ELEMENT_SET_NO": 999, "REV_AT_EPOCH": 15221, "BSTAR": 7.1490958e-05, "MEAN_MOTION_DOT": 3.9e-07, "MEAN_MOTION_DDOT": 0}, "tle": {"line1": "1 12458U 81044A   25349.37998821  .00000039  00000+0  71491-4 0  9994", "line2": "2 12458  89.8526  91.3478 0015930  97.5257 331.8257 13.23278769152213"}}, "geometry": {"type": "Point", "coordinates": [-88.21427699715562, -71.70043724656962]}}, {"type": "Feature", "properties": {"norad_id": 15362, "name": "NOVA 3", "group": "nnss", "lat": 58.248093096248525, "lon": -99.22955353160813, "alt_km": 1188.9029021811357, "timestamp": "2025-12-15T22:44:29.196332+00:00", "meta": {"OBJECT_NAME": "NOVA 3", "OBJECT_ID": "1984-110A", "EPOCH": "2025-12-15T07:57:36.993888", "MEAN_MOTION": 13.23044866, "ECCENTRICITY": 0.00303114, "INCLINATION": 90.1224, "RA_OF_ASC_NODE": 80.5653, "ARG_OF_PERICENTER": 324.5337, "MEAN_ANOMALY": 105.314, "EPHEMERIS_TYPE": 0, "CLASSIFICATION_TYPE": "U", "NORAD_CAT_ID": 15362, "ELEMENT_SET_NO": 999, "REV_AT_EPOCH": 98733, "BSTAR": 8.0152121e-05, "MEAN_MOTION_DOT": 4.2e-07, "MEAN_MOTION_DDOT": 0}, "tle": {"line1": "1 15362U 84110A   25349.33167817  .00000042  00000+0  80152-4 0  9995", "line2": "2 15362  90.1224  80.5653 0030311 324.5337 105.3140 13.23044866987330"}}, "geometry": {"type": "Point", "coordinates": [-99.22955353160813, 58.248093096248525]}}, {"type": "Feature", "properties": {"norad_id": 15935, "name": "OSCAR 30", "group": "nnss", "lat": -9.391892736309588, "lon": 99.92677539175871, "alt_km": 1113.0592204263576, "timestamp": "2025-12-15T22:44:29.196343+00:00", "meta": {"OBJECT_NAME": "OSCAR 30", "OBJECT_ID": "1985-066A", "EPOCH": "2025-12-15T08:42:15.056064", "MEAN_MOTION": 13.3607868, "ECCENTRICITY": 0.0169362, "INCLINATION": 90.1653, "RA_OF_ASC_NODE": 99.8899, "ARG_OF_PERICENTER": 76.5863, "MEAN_ANOMALY": 344.483, "EPHEMERIS_TYPE": 0, "CLASSIFICATION_TYPE": "U", "NORAD_CAT_ID": 15935, "ELEMENT_SET_NO": 999, "REV_AT_EPOCH": 96488, "BSTAR": 0.00012700329, "MEAN_MOTION_DOT": 8.1e-07, "MEAN_MOTION_DDOT": 0}, "tle": {"line1": "1 15935U 85066A   25349.36267426  .00000081  00000+0  12700-3 0  9998", "line2": "2 15935  90.1653  99.8899 0169362  76.5863 344.4830 13.36078680964886"}}, "geometry": {"type": "Point", "coordinates": [99.92677539175871, -9.391892736309588]}}, {"type": "Feature", "properties": {"norad_id": 15936, "name": "OSCAR 24", "group": "nnss", "lat": 65.78826019965264, "lon": 91.96332172024658, "alt_km": 994.7313695918683, "timestamp": "2025-12-15T22:44:29.196355+00:00", "meta": {"OBJECT_NAME": "OSCAR 24", "OBJECT_ID": "1985-066B", "EPOCH": "2025-12-15T08:20:40.988832", "MEAN_MOTION": 13.35936178, "ECCENTRICITY": 0.01704631, "INCLINATION": 90.1792, "RA_OF_ASC_NODE": 92.3515, "ARG_OF_PERICENTER": 83.063, "MEAN_ANOMALY": 340.013, "EPHEMERIS_TYPE": 0, "CLASSIFICATION_TYPE": "U", "NORAD_CAT_ID": 15936, "ELEMENT_SET_NO": 999, "REV_AT_EPOCH": 96678, "BSTAR": 0.00012129069, "MEAN_MOTION_DOT": 7.8e-07, "MEAN_MOTION_DDOT": 0}, "tle": {"line1": "1 15936U 85066B   25349.34769663  .00000078  00000+0  12129-3 0  9998", "line2": "2 15936  90.1792  92.3515 0170463  83.0630 340.0130 13.35936178966783"}}, "geometry": {"type": "Point", "coordinates": [91.96332172024658, 65.78826019965264]}}]}